{
    "links": {
        "self": "http://www.neowsapp.com/rest/v1/neo/3429687?api_key=iIulBulltgU6a56xZRHN4H3l9WmuAYTsLGpBGhQ2"
    },
    "id": "3429687",
    "neo_reference_id": "3429687",
    "name": "(2008 TC1)",
    "designation": "2008 TC1",
    "nasa_jpl_url": "http://ssd.jpl.nasa.gov/sbdb.cgi?sstr=3429687",
    "absolute_magnitude_h": 24.0,
    "estimated_diameter": {
        "kilometers": {
            "estimated_diameter_min": 0.0421264611,
            "estimated_diameter_max": 0.0941976306
        },
        "meters": {
            "estimated_diameter_min": 42.1264610556,
            "estimated_diameter_max": 94.1976305719
        },
        "miles": {
            "estimated_diameter_min": 0.0261761612,
            "estimated_diameter_max": 0.0585316759
        },
        "feet": {
            "estimated_diameter_min": 138.2101784897,
            "estimated_diameter_max": 309.0473542854
        }
    },
    "is_potentially_hazardous_asteroid": false,
    "close_approach_data": [
        {
            "close_approach_date": "2008-09-14",
            "close_approach_date_full": "2008-Sep-14 21:56",
            "epoch_date_close_approach": 1221429360000,
            "relative_velocity": {
                "kilometers_per_second": "12.7443205454",
                "kilometers_per_hour": "45879.5539635703",
                "miles_per_hour": "28507.7706280862"
            },
            "miss_distance": {
                "astronomical": "0.0694419297",
                "lunar": "27.0129106533",
                "kilometers": "10388364.771809739",
                "miles": "6455030.5454588382"
            },
            "orbiting_body": "Earth"
        }
    ],
    "orbital_data": {
        "orbit_id": "8",
        "orbit_determination_date": "2017-04-06 09:02:43",
        "first_observation_date": "2008-10-02",
        "last_observation_date": "2008-10-09",
        "data_arc_in_days": 7,
        "observations_used": 22,
        "orbit_uncertainty": "9",
        "minimum_orbit_intersection": ".0521255",
        "jupiter_tisserand_invariant": "3.497",
        "epoch_osculation": "2454743.5",
        "eccentricity": ".5561654142937472",
        "semi_major_axis": "2.129776518082745",
        "inclination": "7.859631170228223",
        "ascending_node_longitude": "187.1459748188488",
        "orbital_period": "1135.27082834558",
        "perihelion_distance": ".9452684785501607",
        "perihelion_argument": "120.6880016008654",
        "aphelion_distance": "3.314284557615329",
        "perihelion_time": "2454690.961880042135",
        "mean_anomaly": "16.66009793662557",
        "mean_motion": ".317104950652722",
        "equinox": "J2000",
        "orbit_class": {
            "orbit_class_type": "APO",
            "orbit_class_description": "Near-Earth asteroid orbits which cross the Earth’s orbit similar to that of 1862 Apollo",
            "orbit_class_range": "a (semi-major axis) > 1.0 AU; q (perihelion) < 1.017 AU"
        }
    },
    "is_sentry_object": false
}